id,ident,type,name,latitude_deg,longitude_deg,elevation_ft,continent,iso_country,iso_region,municipality,gps_code,iata_code,local_code
31,EGLL,large_airport,Heathrow Airport,51.4700,-0.4543,83,Europe,GB,GB-ENG,London,EGLL,LHR,
32,EGKK,large_airport,Gatwick Airport,51.1481,-0.1903,202,Europe,GB,GB-ENG,London,EGKK,LGW,
33,EGCC,large_airport,Manchester Airport,53.3537,-2.2749,257,Europe,GB,GB-ENG,Manchester,EGCC,MAN,
34,LFPG,large_airport,Charles de Gaulle International Airport,49.0097,2.5479,392,Europe,FR,FR-IDF,Paris,LFPG,CDG,
35,LFPO,large_airport,Paris-Orly Airport,48.7233,2.3794,291,Europe,FR,FR-IDF,Paris,LFPO,ORY,
36,LFMN,large_airport,Nice Côte d'Azur International Airport,43.6617,7.2167,12,Europe,FR,FR-PAC,Nice,LFMN,NCE,
37,EDDF,large_airport,Frankfurt am Main Airport,50.0379,8.5622,364,Europe,DE,DE-HE,Frankfurt,EDDF,FRA,
38,EDDM,large_airport,Munich Airport,48.3538,11.7861,1487,Europe,DE,DE-BY,Munich,EDDM,MUC,
39,EDDB,large_airport,Berlin Brandenburg Airport,52.3622,13.5007,157,Europe,DE,DE-BB,Berlin,EDDB,BER,
40,EHAM,large_airport,Amsterdam Airport Schiphol,52.3086,4.7639,-11,Europe,NL,NL-NH,Amsterdam,EHAM,AMS,
41,LEMD,large_airport,Adolfo Suárez Madrid–Barajas Airport,40.4719,-3.5626,1998,Europe,ES,ES-MD,Madrid,LEMD,MAD,
42,LEBL,large_airport,Josep Tarradellas Barcelona-El Prat Airport,41.2971,2.0785,14,Europe,ES,ES-CT,Barcelona,LEBL,BCN,
43,LIRF,large_airport,Leonardo da Vinci–Fiumicino Airport,41.8045,12.2508,13,Europe,IT,IT-62,Rome,LIRF,FCO,
44,LIMC,large_airport,Malpensa International Airport,45.6306,8.7281,767,Europe,IT,IT-25,Milan,LIMC,MXP,
45,LTFM,large_airport,Istanbul Airport,41.2753,28.7519,325,Europe,TR,TR-34,Istanbul,LTFM,IST,
46,LTFJ,large_airport,Sabiha Gökçen International Airport,40.8986,29.3092,312,Europe,TR,TR-34,Istanbul,LTFJ,SAW,
47,UUEE,large_airport,Sheremetyevo International Airport,55.9726,37.4146,622,Europe,RU,RU-MOS,Moscow,UUEE,SVO,
48,UUDD,large_airport,Domodedovo International Airport,55.4088,37.9063,588,Europe,RU,RU-MOS,Moscow,UUDD,DME,
49,LSZH,large_airport,Zürich Airport,47.4646,8.5492,1416,Europe,CH,CH-ZH,Zurich,LSZH,ZRH,
50,LSGG,large_airport,Geneva Cointrin International Airport,46.2381,6.1089,1411,Europe,CH,CH-GE,Geneva,LSGG,GVA,
51,LOWW,large_airport,Vienna International Airport,48.1103,16.5697,600,Europe,AT,AT-9,Vienna,LOWW,VIE,
52,EKCH,large_airport,Copenhagen Kastrup Airport,55.6179,12.6560,17,Europe,DK,DK-84,Copenhagen,EKCH,CPH,
53,ENGM,large_airport,Oslo Gardermoen Airport,60.1939,11.1004,681,Europe,NO,NO-02,Oslo,ENGM,OSL,
54,ESSA,large_airport,Stockholm-Arlanda Airport,59.6519,17.9186,137,Europe,SE,SE-AB,Stockholm,ESSA,ARN,
55,EFHK,large_airport,Helsinki Vantaa Airport,60.3172,24.9633,179,Europe,FI,FI-18,Helsinki,EFHK,HEL,
56,EIDW,large_airport,Dublin Airport,53.4213,-6.2701,242,Europe,IE,IE-L,Dublin,EIDW,DUB,
57,LPPT,large_airport,Humberto Delgado Airport,38.7742,-9.1342,374,Europe,PT,PT-11,Lisbon,LPPT,LIS,
58,LGAV,large_airport,Eleftherios Venizelos International Airport,37.9364,23.9445,308,Europe,GR,GR-I,Athens,LGAV,ATH,
59,EPWA,large_airport,Warsaw Chopin Airport,52.1657,20.9671,362,Europe,PL,PL-MZ,Warsaw,EPWA,WAW,
60,LKPR,large_airport,Václav Havel Airport Prague,50.1008,14.2600,1247,Europe,CZ,CZ-10,Prague,LKPR,PRG,
61,LHBP,large_airport,Budapest Ferenc Liszt International Airport,47.4369,19.2323,495,Europe,HU,HU-BU,Budapest,LHBP,BUD,
62,EBBR,large_airport,Brussels Airport,50.9014,4.4844,184,Europe,BE,BE-BRU,Brussels,EBBR,BRU,
150,ULLI,large_airport,Pulkovo Airport,59.8003,30.2625,78,Europe,RU,RU-SPE,St. Petersburg,ULLI,LED,
153,URSS,large_airport,Sochi International Airport,43.4499,39.9566,89,Europe,RU,RU-KDA,Sochi,URSS,AER,
154,UWKD,large_airport,Kazan International Airport,55.6062,49.2787,411,Europe,RU,RU-TA,Kazan,UWKD,KZN,
159,UWOO,large_airport,Orenburg Central Airport,51.7958,55.4586,387,Europe,RU,RU-ORE,Orenburg,UWOO,REN,
162,ULAA,large_airport,Talagi Airport,64.5961,40.7167,62,Europe,RU,RU-ARK,Arkhangelsk,ULAA,ARH,
178,BIKF,large_airport,Keflavík International Airport,63.9850,-22.6056,171,Europe,IS,IS-2,Reykjavík,BIKF,KEF,
179,BIRK,medium_airport,Reykjavík Airport,64.1299,-21.9405,48,Europe,IS,IS-1,Reykjavík,BIRK,RKV,
186,BKPR,large_airport,Pristina International Airport,42.5728,21.0358,1789,Europe,XK,XK-01,Pristina,BKPR,PRN,
187,LWSK,large_airport,Skopje International Airport,41.9616,21.6214,781,Europe,MK,MK-80,Skopje,LWSK,SKP,
188,LYBE,large_airport,Belgrade Nikola Tesla Airport,44.8184,20.3091,335,Europe,RS,RS-00,Belgrade,LYBE,BEG,
189,LBSF,large_airport,Sofia Airport,42.6967,23.4114,1742,Europe,BG,BG-22,Sofia,LBSF,SOF,
190,LROP,large_airport,Henri Coandă International Airport,44.5711,26.0858,314,Europe,RO,RO-B,Bucharest,LROP,OTP,
191,UKBB,large_airport,Boryspil International Airport,50.3450,30.8947,427,Europe,UA,UA-32,Kyiv,UKBB,KBP,
192,UKKK,large_airport,Igor Sikorsky Kyiv International Airport (Zhuliany),50.4019,30.4519,587,Europe,UA,UA-30,Kyiv,UKKK,IEV,
193,UMMS,large_airport,Minsk National Airport,53.8825,28.0307,669,Europe,BY,BY-HM,Minsk,UMMS,MSQ,
194,EVRA,large_airport,Riga International Airport,56.9236,23.9711,36,Europe,LV,LV-RIX,Riga,EVRA,RIX,
195,EYVI,large_airport,Vilnius International Airport,54.6341,25.2858,646,Europe,LT,LT-VL,Vilnius,EYVI,VNO,
196,EETN,large_airport,Lennart Meri Tallinn Airport,59.4133,24.8328,131,Europe,EE,EE-37,Tallinn,EETN,TLL

